IRIDIUM 126             
1 42809U 17039G   23300.22678884 -.00000086  00000+0 -37684-4 0  9993
2 42809  86.4008  36.4817 0001822  91.7130 268.4274 14.34212112331791
IRIDIUM 124             
1 42810U 17039H   23299.79908816  .00000493  00000+0  14052-3 0  9998
2 42810  86.4494 333.4454 0002371  97.8135 262.3335 14.43283860336010
IRIDIUM 128             
1 42811U 17039J   23299.86868515  .00000441  00000+0  15032-3 0  9990
2 42811  86.3958  68.1566 0001870  93.8819 266.2590 14.34215743331767
IRIDIUM 121             
1 42812U 17039K   23299.82720973  .00000185  00000+0  58873-4 0  9998
2 42812  86.4016  36.6704 0002179  92.3876 267.7569 14.34214664331604
IRIDIUM 133             
1 42955U 17061A   23299.90039745  .00000413  00000+0  14029-3 0  9998
2 42955  86.3960  68.2376 0001956  83.2505 276.8913 14.34213996316564
IRIDIUM 100             
1 42956U 17061B   23299.89406015  .00000203  00000+0  65259-4 0  9994
2 42956  86.3959  68.1815 0002026  92.5347 267.6080 14.34215378316565
IRIDIUM 122             
1 42957U 17061C   23299.86234494  .00000456  00000+0  15587-3 0  9990
2 42957  86.3958  68.1927 0001791  94.9149 265.2251 14.34216702316569
IRIDIUM 129             
1 42958U 17061D   23299.88771351  .00000067  00000+0  16718-4 0  9997
2 42958  86.3957  68.2390 0001876  95.0879 265.0531 14.34215845316588
